COMMENT,ORIGINATOR,NORAD_CAT_ID,OBJECT_NAME,OBJECT_TYPE,CLASSIFICATION_TYPE,INTLDES,EPOCH,EPOCH_MICROSECONDS,MEAN_MOTION,ECCENTRICITY,INCLINATION,RA_OF_ASC_NODE,ARG_OF_PERICENTER,MEAN_ANOMALY,EPHEMERIS_TYPE,ELEMENT_SET_NO,REV_AT_EPOCH,BSTAR,MEAN_MOTION_DOT,MEAN_MOTION_DDOT,FILE,TLE_LINE0,TLE_LINE1,TLE_LINE2,OBJECT_ID,OBJECT_NUMBER,SEMIMAJOR_AXIS,PERIOD,APOGEE,PERIGEE,DECAYED
"GENERATED VIA SPACETRACK.ORG API","18 SPCS","48904","SPACEBEE-111","PAYLOAD","U","21059AB","2023-11-06 22:09:06","309216","15.52005036","0.0002194","97.6087","94.9394","131.4988","228.6452","0","999","13144","0.0021953","0.00134055","0","4074934","0 SPACEBEE-111","1 48904U 21059AB  23310.92298969  .00134055  00000-0  21953-2 0  9995","2 48904  97.6087  94.9394 0002194 131.4988 228.6452 15.52005036131441","2021-059AB","48904","6789.010","92.783","412.364","409.385","1"
"GENERATED VIA SPACETRACK.ORG API","18 SPCS","48904","SPACEBEE-111","PAYLOAD","U","21059AB","2023-11-06 22:09:06","309216","15.52005036","0.0002194","97.6087","94.9394","131.4988","228.6452","0","999","13144","0.0021953","0.00134055","0","4075235","0 SPACEBEE-111","1 48904U 21059AB  23310.92298969  .00134055  00000-0  21953-2 0  9995","2 48904  97.6087  94.9394 0002194 131.4988 228.6452 15.52005036131441","2021-059AB","48904","6789.010","92.783","412.364","409.385","1"
"GENERATED VIA SPACETRACK.ORG API","18 SPCS","48904","SPACEBEE-111","PAYLOAD","U","21059AB","2023-11-07 08:58:58","903968","15.52146775","0.0002172","97.6086","95.4169","128.2777","231.867","0","999","13151","0.0024325","0.00149597","0","4075921","0 SPACEBEE-111","1 48904U 21059AB  23311.37429287  .00149597  00000-0  24325-2 0  9997","2 48904  97.6086  95.4169 0002172 128.2777 231.8670 15.52146775131514","2021-059AB","48904","6788.596","92.775","411.936","408.987","1"
"GENERATED VIA SPACETRACK.ORG API","18 SPCS","48904","SPACEBEE-111","PAYLOAD","U","21059AB","2023-11-07 08:58:58","903968","15.52146775","0.0002172","97.6086","95.4169","128.2777","231.867","0","999","13151","0.0024325","0.00149597","0","4076432","0 SPACEBEE-111","1 48904U 21059AB  23311.37429287  .00149597  00000-0  24325-2 0  9997","2 48904  97.6086  95.4169 0002172 128.2777 231.8670 15.52146775131514","2021-059AB","48904","6788.596","92.775","411.936","408.987","1"
"GENERATED VIA SPACETRACK.ORG API","18 SPCS","48904","SPACEBEE-111","PAYLOAD","U","21059AB","2023-11-08 03:32:56","551200","15.52334075","0.0002061","97.6087","96.2362","123.2042","236.9407","0","999","13163","0.0021142","0.00130566","0","4077412","0 SPACEBEE-111","1 48904U 21059AB  23312.14787675  .00130566  00000-0  21142-2 0  9991","2 48904  97.6087  96.2362 0002061 123.2042 236.9407 15.52334075131635","2021-059AB","48904","6788.050","92.764","411.314","408.516","1"
"GENERATED VIA SPACETRACK.ORG API","18 SPCS","48904","SPACEBEE-111","PAYLOAD","U","21059AB","2023-11-08 08:11:24","557280","15.52389931","0.0002044","97.6086","96.441","122.2242","237.9209","0","999","13166","0.0020467","0.00126583","0","4078352","0 SPACEBEE-111","1 48904U 21059AB  23312.34125645  .00126583  00000-0  20467-2 0  9999","2 48904  97.6086  96.4410 0002044 122.2242 237.9209 15.52389931131667","2021-059AB","48904","6787.887","92.760","411.140","408.365","1"
"GENERATED VIA SPACETRACK.ORG API","18 SPCS","48904","SPACEBEE-111","PAYLOAD","U","21059AB","2023-11-08 22:06:45","732096","15.52522758","0.0001946","97.6084","97.0558","116.5453","243.5999","0","999","13175","0.0018701","0.00116048","0","4078917","0 SPACEBEE-111","1 48904U 21059AB  23312.92136264  .00116048  00000-0  18701-2 0  9995","2 48904  97.6084  97.0558 0001946 116.5453 243.5999 15.52522758131750","2021-059AB","48904","6787.500","92.752","410.686","408.044","1"
"GENERATED VIA SPACETRACK.ORG API","18 SPCS","48904","SPACEBEE-111","PAYLOAD","U","21059AB","2023-11-08 22:06:45","732096","15.52522758","0.0001946","97.6084","97.0558","116.5453","243.5999","0","999","13175","0.0018701","0.00116048","0","4079166","0 SPACEBEE-111","1 48904U 21059AB  23312.92136264  .00116048  00000-0  18701-2 0  9995","2 48904  97.6084  97.0558 0001946 116.5453 243.5999 15.52522758131750","2021-059AB","48904","6787.500","92.752","410.686","408.044","1"
"GENERATED VIA SPACETRACK.ORG API","18 SPCS","48904","SPACEBEE-111","PAYLOAD","U","21059AB","2023-11-09 08:56:25","675296","15.52640863","0.0001936","97.6084","97.5335","113.5407","246.6049","0","999","13182","0.0020447","0.00127617","0","4079782","0 SPACEBEE-111","1 48904U 21059AB  23313.37251939  .00127617  00000-0  20447-2 0  9996","2 48904  97.6084  97.5335 0001936 113.5407 246.6049 15.52640863131829","2021-059AB","48904","6787.156","92.745","410.335","407.707","1"
"GENERATED VIA SPACETRACK.ORG API","18 SPCS","48904","SPACEBEE-111","PAYLOAD","U","21059AB","2023-11-09 08:56:25","675296","15.52640863","0.0001936","97.6084","97.5335","113.5407","246.6049","0","999","13182","0.0020447","0.00127617","0","4080359","0 SPACEBEE-111","1 48904U 21059AB  23313.37251939  .00127617  00000-0  20447-2 0  9996","2 48904  97.6084  97.5335 0001936 113.5407 246.6049 15.52640863131829","2021-059AB","48904","6787.156","92.745","410.335","407.707","1"
"GENERATED VIA SPACETRACK.ORG API","18 SPCS","48904","SPACEBEE-111","PAYLOAD","U","21059AB","2023-11-09 22:51:38","966112","15.52766704","0.0001912","97.6085","98.1484","107.7531","252.393","0","999","13191","0.0018441","0.00115429","0","4080838","0 SPACEBEE-111","1 48904U 21059AB  23313.95253433  .00115429  00000-0  18441-2 0  9990","2 48904  97.6085  98.1484 0001912 107.7531 252.3930 15.52766704131915","2021-059AB","48904","6786.789","92.738","409.952","407.357","1"
"GENERATED VIA SPACETRACK.ORG API","18 SPCS","48904","SPACEBEE-111","PAYLOAD","U","21059AB","2023-11-09 22:51:38","966112","15.52766704","0.0001912","97.6085","98.1484","107.7531","252.393","0","999","13191","0.0018441","0.00115429","0","4081078","0 SPACEBEE-111","1 48904U 21059AB  23313.95253433  .00115429  00000-0  18441-2 0  9990","2 48904  97.6085  98.1484 0001912 107.7531 252.3930 15.52766704131915","2021-059AB","48904","6786.789","92.738","409.952","407.357","1"
"GENERATED VIA SPACETRACK.ORG API","18 SPCS","48904","SPACEBEE-111","PAYLOAD","U","21059AB","2023-11-10 09:41:12","882048","15.52874911","0.0001955","97.6087","98.6262","105.2468","254.9001","0","999","13198","0.0017174","0.00107806","0","4082124","0 SPACEBEE-111","1 48904U 21059AB  23314.40362132  .00107806  00000-0  17174-2 0  9990","2 48904  97.6087  98.6262 0001955 105.2468 254.9001 15.52874911131989","2021-059AB","48904","6786.474","92.731","409.666","407.012","1"
"GENERATED VIA SPACETRACK.ORG API","18 SPCS","48904","SPACEBEE-111","PAYLOAD","U","21059AB","2023-11-10 15:52:22","536480","15.52930409","0.0001947","97.6086","98.8999","103.5057","256.6412","0","999","13202","0.0018377","0.00115711","0","4082691","0 SPACEBEE-111","1 48904U 21059AB  23314.66137195  .00115711  00000-0  18377-2 0  9997","2 48904  97.6086  98.8999 0001947 103.5057 256.6412 15.52930409132029","2021-059AB","48904","6786.312","92.728","409.499","406.856","1"
"GENERATED VIA SPACETRACK.ORG API","18 SPCS","48904","SPACEBEE-111","PAYLOAD","U","21059AB","2023-11-11 08:52:59","995776","15.53084419","0.0002081","97.6087","99.6507","100.141","260.0077","0","999","13213","0.001657","0.00104758","0","4083483","0 SPACEBEE-111","1 48904U 21059AB  23315.37013884  .00104758  00000-0  16570-2 0  9996","2 48904  97.6087  99.6507 0002081 100.1410 260.0077 15.53084419132130","2021-059AB","48904","6785.864","92.719","409.141","406.317","1"
"GENERATED VIA SPACETRACK.ORG API","18 SPCS","48904","SPACEBEE-111","PAYLOAD","U","21059AB","2023-11-11 08:52:59","995776","15.53084419","0.0002081","97.6087","99.6507","100.141","260.0077","0","999","13213","0.001657","0.00104758","0","4083845","0 SPACEBEE-111","1 48904U 21059AB  23315.37013884  .00104758  00000-0  16570-2 0  9996","2 48904  97.6087  99.6507 0002081 100.1410 260.0077 15.53084419132130","2021-059AB","48904","6785.864","92.719","409.141","406.317","1"
"GENERATED VIA SPACETRACK.ORG API","18 SPCS","48904","SPACEBEE-111","PAYLOAD","U","21059AB","2023-11-11 21:15:12","842784","15.5318026","0.0002101","97.6088","100.1976","94.5001","265.6491","0","999","13221","0.00157","0.0009953","0","4084458","0 SPACEBEE-111","1 48904U 21059AB  23315.88556531  .00099530  00000-0  15700-2 0  9998","2 48904  97.6088 100.1976 0002101  94.5001 265.6491 15.53180260132215","2021-059AB","48904","6785.585","92.713","408.875","406.024","1"
"GENERATED VIA SPACETRACK.ORG API","18 SPCS","48904","SPACEBEE-111","PAYLOAD","U","21059AB","2023-11-12 03:26:18","124512","15.53230927","0.0002012","97.6092","100.4713","92.2864","267.8619","0","999","13225","0.00156","0.00099069","0","4084604","0 SPACEBEE-111","1 48904U 21059AB  23316.14326533  .00099069  00000-0  15600-2 0  9991","2 48904  97.6092 100.4713 0002012  92.2864 267.8619 15.53230927132251","2021-059AB","48904","6785.437","92.710","408.667","405.937","1"
"GENERATED VIA SPACETRACK.ORG API","18 SPCS","48904","SPACEBEE-111","PAYLOAD","U","21059AB","2023-11-12 09:37:22","635552","15.5328643","0.0001949","97.609","100.7443","90.8828","269.2648","0","999","13229","0.0014684","0.00093365","0","4085556","0 SPACEBEE-111","1 48904U 21059AB  23316.40095643  .00093365  00000-0  14684-2 0  9999","2 48904  97.6090 100.7443 0001949  90.8828 269.2648 15.53286430132296","2021-059AB","48904","6785.275","92.707","408.463","405.818","1"
"GENERATED VIA SPACETRACK.ORG API","18 SPCS","48904","SPACEBEE-111","PAYLOAD","U","21059AB","2023-11-12 21:59:29","478624","15.53392959","0.0001916","97.609","101.2914","85.2912","274.8559","0","999","13237","0.0016291","0.00104134","0","4086163","0 SPACEBEE-111","1 48904U 21059AB  23316.91631341  .00104134  00000-0  16291-2 0  9999","2 48904  97.6090 101.2914 0001916  85.2912 274.8559 15.53392959132377","2021-059AB","48904","6784.965","92.700","408.130","405.530","1"
